NUSAT-1 (FRESCO)        
1 41557U 16033B   22275.82512244  .00017911  00000+0  49330-3 0  9991
2 41557  97.3897  13.8863 0009888 359.3066 115.8226 15.37157078353865
BEESAT-4                
1 41619U 16040W   22275.86048144  .00024924  00000+0  76017-3 0  9999
2 41619  97.2052 323.7424 0010523  93.9466 266.2980 15.33874062337174
CAS-2T & KS-1Q          
1 41847U 16066G   22275.79512643  .00001104  00000+0  17648-3 0  9992
2 41847  98.5401 340.3049 0362180 248.6763 107.5408 14.38747099309786
NAYIF-1 (EO-88)         
1 42017U 17008BX  22275.72197260  .00030776  00000+0  82591-3 0  9992
2 42017  97.2574 340.4417 0004189 202.4582 157.6480 15.37890185313542
ZHUHAI-1 02 (CAS-4B)    
1 42759U 17034B   22275.83070125  .00004597  00000+0  27092-3 0  9993
2 42759  43.0167 100.5470 0010689 251.1822 125.0687 15.12606929292612
ZHUHAI-1 01 (CAS-4A)    
1 42761U 17034D   22275.81433333  .00004465  00000+0  26295-3 0  9996
2 42761  43.0165  99.3438 0010980 253.7261 231.3824 15.12685604292612
MAX VALIER SAT          
1 42778U 17036P   22275.67666732  .00012596  00000+0  45553-3 0  9993
2 42778  97.1955 313.1397 0008745 310.7855  49.2626 15.28531432293272
RADFXSAT (FOX-1B)       
1 43017U 17073E   22275.67621073  .00004311  00000+0  32377-3 0  9996
2 43017  97.6584 165.4545 0245744 196.1521 163.1760 14.82115355262994
FOX-1D (AO-92)          
1 43137U 18004AC  22275.72853382  .00016030  00000+0  53217-3 0  9997
2 43137  97.3598 350.0012 0006804 352.2766   7.8369 15.31284882262758
DIWATA-2B               
1 43678U 18084H   22275.80330647  .00001221  00000+0  12524-3 0  9990
2 43678  97.9860  50.4300 0008580 294.8814  65.1536 14.92334803213861
ES'HAIL 2               
1 43700U 18090A   22275.88390448  .00000137  00000+0  00000+0 0  9993
2 43700   0.0162 124.0873 0002304  96.7175 134.7978  1.00273390 14104
FOX-1CLIFF (AO-95)      
1 43770U 18099N   22275.69598389  .00003342  00000+0  29580-3 0  9991
2 43770  97.6099 339.2339 0012810 276.8119  83.1646 14.96887463209051
ITASAT 1                
1 43786U 18099AE  22275.74774781  .00003419  00000+0  30175-3 0  9993
2 43786  97.6135 340.2578 0012956 268.3247  91.6491 14.96979276209107
JY1SAT (JO-97)          
1 43803U 18099AX  22275.72668475  .00004942  00000+0  42744-3 0  9990
2 43803  97.6086 340.0278 0012772 265.4774  94.4989 14.97568656209128
UWE-4                   
1 43880U 18111E   22275.64847191  .00004164  00000+0  35084-3 0  9990
2 43880  97.6568 180.0672 0011418 327.8798  32.1728 14.98685847205751
NEXUS (FO-99)           
1 43937U 19003F   22275.82492027  .00021641  00000+0  67367-3 0  9996
2 43937  97.1229 305.1143 0021198 126.4364 233.8837 15.33080484206415
PSAT2 (NO-104)          
1 44354U 19036R   22275.34935580  .00116333 -28984-5  81607-3 0  9993
2 44354  28.5202 151.1885 0186232 105.4166 256.7090 15.52816198181235
JAISAT-1                
1 44419U 19038F   22275.81501144  .00015198  00000+0  72780-3 0  9995
2 44419  97.6478 246.9768 0020581 117.1536 243.1800 15.18855886179344
DUCHIFAT-3              
1 44854U 19089C   22275.85718837  .00004963  00000+0  37976-3 0  9993
2 44854  36.9651 183.3207 0008351   2.5226  54.4095 15.01728774154082
CAS-6 (TIANQIN 1)       
1 44881U 19093C   22275.87993430  .00000699  00000+0  94979-4 0  9993
2 44881  97.8862 353.5193 0014511 191.6559 168.4303 14.81835900150688
RS-44 & BREEZE-KM R/B   
1 44909U 19096E   22275.77021973  .00000024  00000+0  45525-4 0  9995
2 44909  82.5234 158.9989 0218383  68.8782 293.5511 12.79715456129235
ORBITAL FACTORY 2 (OF-2)
1 45113U 19071C   22275.34692711  .00046725  00000+0  79328-3 0  9998
2 45113  51.6358 251.4528 0007198 190.9151 169.1683 15.50975877149936
HUSKYSAT-1 (HO-107)     
1 45119U 19071J   22275.43832028  .00037915  00000+0  68495-3 0  9995
2 45119  51.6359 252.0297 0007397 187.7966 172.2908 15.49311246149928
BY70-2                  
1 45857U 20042B   22275.83020853  .00008086  00000+0  10489-2 0  9999
2 45857  97.9499 351.6991 0011594 126.7282 233.5025 14.80987480121340
SALSAT                  
1 46495U 20068K   22275.82645800  .00003805  00000+0  27244-3 0  9992
2 46495  97.7368 217.2226 0014279 274.7322  85.2273 15.04945251110333
BY70-3                  
1 46839U 20079N   22275.89480752  .00035283  00000+0  70743-3 0  9993
2 46839  97.1875 346.8371 0003910 305.3689 167.7301 15.46623418106820
RADFXSAT-2 (AO-109)     
1 47311U 21002C   22275.85730588  .00013358  00000+0  50301-3 0  9994
2 47311  60.6855 317.4790 0034807  46.7193 313.6790 15.26886597 94853
UVSQ-SAT                
1 47438U 21006AB  22275.72129985  .00009749  00000+0  49867-3 0  9991
2 47438  97.4256 332.5398 0010110 260.6802  99.3289 15.16800927 93530
DIY-1 (ARDUIQUBE)       
1 47963U 21022AH  22275.68390320  .00028207  00000+0  14400-2 0  9994
2 47963  97.5185 175.9464 0017893 117.2646 243.0412 15.16529547 83188
XW-3 (CAS-9)            
1 50466U 21131B   22275.84508761  .00000333  00000+0  12358-3 0  9996
2 50466  98.5741 353.0159 0004837 175.4837 184.6395 14.38533583 40351
TEVEL-3                 
1 50988U 22002E   22275.89186514  .00009040  00000+0  47723-3 0  9994
2 50988  97.4711 341.1096 0010504  58.4052  28.9618 15.15705159 39688
TEVEL-8                 
1 50989U 22002F   22275.89537509  .00009197  00000+0  48619-3 0  9997
2 50989  97.4721 341.1436 0010569  57.5411   0.7978 15.15652850 39684
TEVEL-5                 
1 50998U 22002Q   22275.88268223  .00009189  00000+0  47797-3 0  9997
2 50998  97.4702 341.2589 0011802  53.6505  59.1985 15.16212880 39698
TEVEL-6                 
1 50999U 22002R   22275.88212450  .00009192  00000+0  47805-3 0  9993
2 50999  97.4698 341.2560 0011746  53.8817  59.5949 15.16218502 39698
TEVEL-1                 
1 51013U 22002AF  22275.89593514  .00009152  00000+0  48347-3 0  9993
2 51013  97.4705 341.0875 0010280  58.0048  29.6689 15.15678672 39682
TEVEL-7                 
1 51062U 22002CG  22275.89666953  .00009299  00000+0  49162-3 0  9993
2 51062  97.4724 341.1283 0010441  57.3871 357.6254 15.15646972 39686
TEVEL-4                 
1 51063U 22002CH  22275.84214012  .00009192  00000+0  48617-3 0  9990
2 51063  97.4721 341.0696 0010520  56.6292  54.9760 15.15634077 39679
TEVEL-2                 
1 51069U 22002CP  22275.89751485  .00009071  00000+0  47893-3 0  9992
2 51069  97.4713 341.1004 0010444  57.8777  52.0075 15.15698912 39683
GREENCUBE               
1 53106U 22080B   22270.63842984 -.00000003  00000+0  00000+0 0  9996
2 53106  70.1628  50.9274 0008650 240.4290 119.5508  6.42557874  4885
YUZGU 9 (RS3S)          
1 53308U 98067TT  22275.85983365  .00081797  00000+0  11426-2 0  9991
2 53308  51.6389 161.7540 0002648 226.9154 133.1616 15.56139528 11442
YUZGU 7 (RS1S)          
1 53309U 98067TU  22275.85588613  .00086232  00000+0  11943-2 0  9992
2 53309  51.6383 161.7252 0002252 243.0941 116.9820 15.56348073 11399
YUZGU 11 (RS5S)         
1 53310U 98067TV  22275.85944992  .00081301  00000+0  11354-2 0  9998
2 53310  51.6389 161.7526 0002074 240.0192 120.0594 15.56149999 11422
YUZGU 12 (RS6S)         
1 53311U 98067TW  22275.78546527  .00089290  00000+0  12253-2 0  9997
2 53311  51.6379 162.0044 0003016 218.9243 141.1532 15.56579434 11437
TSIOLKOVSKY-RYAZAN 1 (*)
1 53312U 98067TX  22275.85394980  .00085288  00000+0  11813-2 0  9994
2 53312  51.6387 161.7142 0002141 249.5037 110.5725 15.56351585 11384
TSIOLKOVSKY-RYAZAN 2 (*)
1 53313U 98067TY  22275.85194954  .00085730  00000+0  11857-2 0  9994
2 53313  51.6387 161.7013 0001788 239.9895 120.0919 15.56388953 11439
YUZGU 10 (RS4S)         
1 53321U 98067TZ  22275.79514515  .00082449  00000+0  11479-2 0  9999
2 53321  51.6391 162.0748 0002433 230.6207 129.4570 15.56226188 11421
RS29S (SXC3-2110 CYCLO*)
1 53373U 22096D   22275.85029575  .00012422  00000+0  49546-3 0  9990
2 53373  97.4292 176.9150 0002900  44.3488  21.2148 15.25323418  8311
RS32S (SXC3-212 MONITO*)
1 53374U 22096E   22275.84639509  .00012442  00000+0  49458-3 0  9998
2 53374  97.4291 176.9189 0002389  43.1920  22.4585 15.25438663  8319
RS34S (SXC3-218 KUZBAS*)
1 53375U 22096F   22275.91270659  .00009614  00000+0  38418-3 0  9995
2 53375  97.4294 176.9831 0002232  41.5770  23.2921 15.25331048  8322
RS23S (SXC3-21 UTMN)    
1 53376U 22096G   22275.78206603  .00010653  00000+0  42500-3 0  9991
2 53376  97.4293 176.8558 0002178  42.2607  31.4099 15.25357113  8309
RS28S (SXC3-214 MIET-A*)
1 53377U 22096H   22275.78333943  .00010060  00000+0  40125-3 0  9993
2 53377  97.4298 176.8607 0002277  39.1686  47.5916 15.25381162  8309
RS26S (KAI-1)           
1 53378U 22096J   22275.84470721  .00009109  00000+0  36406-3 0  9996
2 53378  97.4292 176.9216 0001944  36.6775  28.4019 15.25341908  8319
RS19S (SXC3-219 ISOI)   
1 53381U 22096M   22275.90707194  .00010631  00000+0  41808-3 0  9998
2 53381  97.4299 177.0197 0002041 255.3787 237.2832 15.25837562  8322
RS21S (CUBESX-HSE-2)    
1 53383U 22096P   22275.89165706  .00010123  00000+0  39789-3 0  9996
2 53383  97.4292 177.0093 0002171 259.2694 159.2441 15.25868274  8329
RS30S (SXC3-217 SIREN)  
1 53384U 22096Q   22275.89157593  .00009581  00000+0  37690-3 0  9997
2 53384  97.4299 177.0100 0002347 255.0384 164.7506 15.25857499  8321
RS20S (GEOSCAN-EDELVEIS)
1 53385U 22096R   22275.82303253  .00013073  00000+0  50751-3 0  9991
2 53385  97.4296 176.9599 0002518 254.4968 192.7917 15.26217410  8343
RS33S (SXC3-215 VIZARD) 
1 53386U 22096S   22275.81290538  .00015751  00000+0  60340-3 0  9992
2 53386  97.4296 176.9730 0003107 259.2068 187.1998 15.26615307  8333
CUTE-1 (CO-55)          
1 27844U 03031E   22275.62412997  .00000322  00000+0  16370-3 0  9996
2 27844  98.6814 281.7050 0010419 146.2442 213.9401 14.22502788999101
CUBESAT XI-IV (CO-57)   
1 27848U 03031J   22275.47998552  .00000259  00000+0  13693-3 0  9993
2 27848  98.6855 282.0593 0010071 160.3905 199.7661 14.22052838998891
